{
  "type": "FeatureCollection",
  "features": [
    {
      "type": "Feature",
      "properties": {
        "norad_id": 33886,
        "name": "IRIDIUM 33 DEB",
        "group": "iridium-33-debris",
        "lat": -28.945135175928055,
        "lon": -106.79000101760192,
        "alt_km": 774.5380784810804,
        "timestamp": "2025-12-03T06:58:43.626464+00:00",
        "meta_object_name": "IRIDIUM 33 DEB",
        "meta_object_id": "1997-051BF",
        "meta_epoch": "2025-12-02T18:50:03.765984",
        "meta_mean_motion": 14.36031496,
        "meta_eccentricity": 0.0012058,
        "meta_inclination": 86.3833,
        "meta_ra_of_asc_node": 71.4183,
        "meta_arg_of_pericenter": 279.8713,
        "meta_mean_anomaly": 194.8492,
        "meta_ephemeris_type": 0,
        "meta_classification_type": "U",
        "meta_norad_cat_id": 33886,
        "meta_element_set_no": 999,
        "meta_rev_at_epoch": 87909,
        "meta_bstar": 0.00028159,
        "meta_mean_motion_dot": 8.38e-06,
        "meta_mean_motion_ddot": 0,
        "tle_line1": "1 33886U 97051BF  25336.78476581  .00000838  00000+0  28159-3 0  9991",
        "tle_line2": "2 33886  86.3833  71.4183 0012058 279.8713 194.8492 14.36031496879095"
      },
      "geometry": {
        "type": "Point",
        "coordinates": [
          -106.79000101760192,
          -28.945135175928055
        ]
      }
    },
    {
      "type": "Feature",
      "properties": {
        "norad_id": 33887,
        "name": "IRIDIUM 33 DEB",
        "group": "iridium-33-debris",
        "lat": 74.0926894974666,
        "lon": 174.3596804728466,
        "alt_km": 763.574139346525,
        "timestamp": "2025-12-03T06:58:43.626474+00:00",
        "meta_object_name": "IRIDIUM 33 DEB",
        "meta_object_id": "1997-051BG",
        "meta_epoch": "2025-12-02T14:22:15.828384",
        "meta_mean_motion": 14.37206351,
        "meta_eccentricity": 0.00040384,
        "meta_inclination": 86.3053,
        "meta_ra_of_asc_node": 7.7621,
        "meta_arg_of_pericenter": 275.4272,
        "meta_mean_anomaly": 211.9937,
        "meta_ephemeris_type": 0,
        "meta_classification_type": "U",
        "meta_norad_cat_id": 33887,
        "meta_element_set_no": 999,
        "meta_rev_at_epoch": 88019,
        "meta_bstar": 0.00019180261,
        "meta_mean_motion_dot": 5.9e-06,
        "meta_mean_motion_ddot": 0,
        "tle_line1": "1 33887U 97051BG  25336.59879431  .00000590  00000+0  19180-3 0  9991",
        "tle_line2": "2 33887  86.3053   7.7621 0004038 275.4272 211.9937 14.37206351880193"
      },
      "geometry": {
        "type": "Point",
        "coordinates": [
          174.3596804728466,
          74.0926894974666
        ]
      }
    },
    {
      "type": "Feature",
      "properties": {
        "norad_id": 33953,
        "name": "IRIDIUM 33 DEB",
        "group": "iridium-33-debris",
        "lat": 67.93338801369543,
        "lon": 66.85079306661947,
        "alt_km": 696.4347035605715,
        "timestamp": "2025-12-03T06:58:43.626485+00:00",
        "meta_object_name": "IRIDIUM 33 DEB",
        "meta_object_id": "1997-051BN",
        "meta_epoch": "2025-12-02T16:23:53.820384",
        "meta_mean_motion": 14.55150368,
        "meta_eccentricity": 0.0018426,
        "meta_inclination": 86.3853,
        "meta_ra_of_asc_node": 58.1431,
        "meta_arg_of_pericenter": 133.5713,
        "meta_mean_anomaly": 354.392,
        "meta_ephemeris_type": 0,
        "meta_classification_type": "U",
        "meta_norad_cat_id": 33953,
        "meta_element_set_no": 999,
        "meta_rev_at_epoch": 88157,
        "meta_bstar": 0.0017185,
        "meta_mean_motion_dot": 7.461e-05,
        "meta_mean_motion_ddot": 0,
        "tle_line1": "1 33953U 97051BN  25336.68326181  .00007461  00000+0  17185-2 0  9990",
        "tle_line2": "2 33953  86.3853  58.1431 0018426 133.5713 354.3920 14.55150368881577"
      },
      "geometry": {
        "type": "Point",
        "coordinates": [
          66.85079306661947,
          67.93338801369543
        ]
      }
    },
    {
      "type": "Feature",
      "properties": {
        "norad_id": 33960,
        "name": "IRIDIUM 33 DEB",
        "group": "iridium-33-debris",
        "lat": -51.03027812117863,
        "lon": -70.68100740704244,
        "alt_km": 625.3538689035204,
        "timestamp": "2025-12-03T06:58:43.626496+00:00",
        "meta_object_name": "IRIDIUM 33 DEB",
        "meta_object_id": "1997-051BV",
        "meta_epoch": "2025-12-02T15:48:46.343808",
        "meta_mean_motion": 14.84325358,
        "meta_eccentricity": 0.00069432,
        "meta_inclination": 86.2528,
        "meta_ra_of_asc_node": 294.2638,
        "meta_arg_of_pericenter": 75.6151,
        "meta_mean_anomaly": 98.859,
        "meta_ephemeris_type": 0,
        "meta_classification_type": "U",
        "meta_norad_cat_id": 33960,
        "meta_element_set_no": 999,
        "meta_rev_at_epoch": 88717,
        "meta_bstar": 0.0041782629,
        "meta_mean_motion_dot": 0.00035225,
        "meta_mean_motion_ddot": 0,
        "tle_line1": "1 33960U 97051BV  25336.65886972  .00035225  00000+0  41783-2 0  9994",
        "tle_line2": "2 33960  86.2528 294.2638 0006943  75.6151  98.8590 14.84325358887178"
      },
      "geometry": {
        "type": "Point",
        "coordinates": [
          -70.68100740704244,
          -51.03027812117863
        ]
      }
    },
    {
      "type": "Feature",
      "properties": {
        "norad_id": 33966,
        "name": "IRIDIUM 33 DEB",
        "group": "iridium-33-debris",
        "lat": 27.4679578434548,
        "lon": 51.96059952594587,
        "alt_km": 730.4998463194479,
        "timestamp": "2025-12-03T06:58:43.626507+00:00",
        "meta_object_name": "IRIDIUM 33 DEB",
        "meta_object_id": "1997-051CB",
        "meta_epoch": "2025-12-02T18:10:35.020128",
        "meta_mean_motion": 14.49523607,
        "meta_eccentricity": 0.0006332,
        "meta_inclination": 86.3932,
        "meta_ra_of_asc_node": 50.3103,
        "meta_arg_of_pericenter": 224.6219,
        "meta_mean_anomaly": 261.1638,
        "meta_ephemeris_type": 0,
        "meta_classification_type": "U",
        "meta_norad_cat_id": 33966,
        "meta_element_set_no": 999,
        "meta_rev_at_epoch": 88297,
        "meta_bstar": 0.0008108,
        "meta_mean_motion_dot": 3.127e-05,
        "meta_mean_motion_ddot": 0,
        "tle_line1": "1 33966U 97051CB  25336.75734977  .00003127  00000+0  81080-3 0  9999",
        "tle_line2": "2 33966  86.3932  50.3103 0006332 224.6219 261.1638 14.49523607882974"
      },
      "geometry": {
        "type": "Point",
        "coordinates": [
          51.96059952594587,
          27.4679578434548
        ]
      }
    },
    {
      "type": "Feature",
      "properties": {
        "norad_id": 34071,
        "name": "IRIDIUM 33 DEB",
        "group": "iridium-33-debris",
        "lat": 80.85518159408768,
        "lon": 178.55185906653074,
        "alt_km": 714.760868781982,
        "timestamp": "2025-12-03T06:58:43.626517+00:00",
        "meta_object_name": "IRIDIUM 33 DEB",
        "meta_object_id": "1997-051CE",
        "meta_epoch": "2025-12-02T15:36:51.458112",
        "meta_mean_motion": 14.49390273,
        "meta_eccentricity": 0.0009443,
        "meta_inclination": 86.3468,
        "meta_ra_of_asc_node": 22.2133,
        "meta_arg_of_pericenter": 134.9637,
        "meta_mean_anomaly": 225.2334,
        "meta_ephemeris_type": 0,
        "meta_classification_type": "U",
        "meta_norad_cat_id": 34071,
        "meta_element_set_no": 999,
        "meta_rev_at_epoch": 88188,
        "meta_bstar": 0.00080981,
        "meta_mean_motion_dot": 3.116e-05,
        "meta_mean_motion_ddot": 0,
        "tle_line1": "1 34071U 97051CE  25336.65059558  .00003116  00000+0  80981-3 0  9998",
        "tle_line2": "2 34071  86.3468  22.2133 0009443 134.9637 225.2334 14.49390273881884"
      },
      "geometry": {
        "type": "Point",
        "coordinates": [
          178.55185906653074,
          80.85518159408768
        ]
      }
    },
    {
      "type": "Feature",
      "properties": {
        "norad_id": 34077,
        "name": "IRIDIUM 33 DEB",
        "group": "iridium-33-debris",
        "lat": 38.2394482371763,
        "lon": -127.18540517961944,
        "alt_km": 673.3894712298234,
        "timestamp": "2025-12-03T06:58:43.626527+00:00",
        "meta_object_name": "IRIDIUM 33 DEB",
        "meta_object_id": "1997-051CL",
        "meta_epoch": "2025-12-02T17:45:19.641024",
        "meta_mean_motion": 14.64560219,
        "meta_eccentricity": 0.0011006,
        "meta_inclination": 86.3871,
        "meta_ra_of_asc_node": 55.911,
        "meta_arg_of_pericenter": 70.8533,
        "meta_mean_anomaly": 47.529,
        "meta_ephemeris_type": 0,
        "meta_classification_type": "U",
        "meta_norad_cat_id": 34077,
        "meta_element_set_no": 999,
        "meta_rev_at_epoch": 88186,
        "meta_bstar": 0.0021172,
        "meta_mean_motion_dot": 0.0001127,
        "meta_mean_motion_ddot": 0,
        "tle_line1": "1 34077U 97051CL  25336.73981066  .00011270  00000+0  21172-2 0  9997",
        "tle_line2": "2 34077  86.3871  55.9110 0011006  70.8533  47.5290 14.64560219881867"
      },
      "geometry": {
        "type": "Point",
        "coordinates": [
          -127.18540517961944,
          38.2394482371763
        ]
      }
    }
  ]
}